start=new Date('2021-11-24T00:00:00.000Z').valueOf();
sats=[{"EPOCH":"2021-11-23T18:21:10.222560","PERIOD":"95.592","ELEMENT_SET_NO":"999","COUNTRY_CODE":"US","SITE":"AFETR","TIME_SYSTEM":"UTC","TLE_LINE2":"2 47559  53.0539 195.8219 0001746  74.1589 285.9592 15.06397597 44903","MEAN_MOTION_DOT":"-0.00000200","MEAN_ELEMENT_THEORY":"SGP4","OBJECT_TYPE":"PAYLOAD","GP_ID":"190364494","RCS_SIZE":"LARGE","DECAY_DATE":null,"INCLINATION":"53.0539","LAUNCH_DATE":"2021-02-04","OBJECT_NAME":"STARLINK-1958","RA_OF_ASC_NODE":"195.8219","CLASSIFICATION_TYPE":"U","MEAN_MOTION":"15.06397597","PERIAPSIS":"546.012","SEMIMAJOR_AXIS":"6925.356","NORAD_CAT_ID":"47559","FILE":"3222563","ECCENTRICITY":"0.00017460","MEAN_ANOMALY":"285.9592","REF_FRAME":"TEME","ARG_OF_PERICENTER":"74.1589","TLE_LINE1":"1 47559U 21009M   21327.76470165 -.00000200  00000-0  54568-5 0  9999","OBJECT_ID":"2021-009M","REV_AT_EPOCH":"4490","EPHEMERIS_TYPE":"0","CENTER_NAME":"EARTH","MEAN_MOTION_DDOT":"0.0000000000000","BSTAR":"0.00000545680000","APOAPSIS":"548.430"},{"GP_ID":"190363242","OBJECT_TYPE":"PAYLOAD","DECAY_DATE":null,"INCLINATION":"53.0542","RCS_SIZE":"LARGE","EPOCH":"2021-11-23T21:21:37.867968","PERIOD":"95.592","ELEMENT_SET_NO":"999","SITE":"AFETR","COUNTRY_CODE":"US","TIME_SYSTEM":"UTC","MEAN_MOTION_DOT":"-0.00000198","TLE_LINE2":"2 47560  53.0542 195.2660 0002016  78.4516 281.6700 15.06399031 44922","MEAN_ELEMENT_THEORY":"SGP4","MEAN_ANOMALY":"281.6700","REF_FRAME":"TEME","ARG_OF_PERICENTER":"78.4516","OBJECT_ID":"2021-009N","TLE_LINE1":"1 47560U 21009N   21327.89002162 -.00000198  00000-0  55923-5 0  9995","REV_AT_EPOCH":"4492","EPHEMERIS_TYPE":"0","CENTER_NAME":"EARTH","APOAPSIS":"548.613","MEAN_MOTION_DDOT":"0.0000000000000","BSTAR":"0.00000559230000","LAUNCH_DATE":"2021-02-04","OBJECT_NAME":"STARLINK-1959","RA_OF_ASC_NODE":"195.2660","MEAN_MOTION":"15.06399031","CLASSIFICATION_TYPE":"U","SEMIMAJOR_AXIS":"6925.352","PERIAPSIS":"545.820","ECCENTRICITY":"0.00020160","NORAD_CAT_ID":"47560","FILE":"3222563"},{"ARG_OF_PERICENTER":"59.5971","MEAN_ANOMALY":"300.5636","REF_FRAME":"TEME","CENTER_NAME":"EARTH","MEAN_MOTION_DDOT":"0.0000000000000","BSTAR":"0.00002371500000","APOAPSIS":"551.558","TLE_LINE1":"1 47561U 21009P   21327.41269096  .00000070  00000-0  23715-4 0  9996","OBJECT_ID":"2021-009P","REV_AT_EPOCH":"4457","EPHEMERIS_TYPE":"0","OBJECT_NAME":"STARLINK-1960","RA_OF_ASC_NODE":"217.4059","CLASSIFICATION_TYPE":"U","MEAN_MOTION":"15.06395551","LAUNCH_DATE":"2021-02-04","NORAD_CAT_ID":"47561","FILE":"3222418","ECCENTRICITY":"0.00062530","PERIAPSIS":"542.897","SEMIMAJOR_AXIS":"6925.362","OBJECT_TYPE":"PAYLOAD","GP_ID":"190337201","INCLINATION":"53.0565","DECAY_DATE":null,"RCS_SIZE":"LARGE","PERIOD":"95.592","ELEMENT_SET_NO":"999","EPOCH":"2021-11-23T09:54:16.498944","MEAN_MOTION_DOT":"0.00000070","TLE_LINE2":"2 47561  53.0565 217.4059 0006253  59.5971 300.5636 15.06395551 44572","MEAN_ELEMENT_THEORY":"SGP4","COUNTRY_CODE":"US","SITE":"AFETR","TIME_SYSTEM":"UTC"},{"DECAY_DATE":null,"INCLINATION":"53.0546","RCS_SIZE":"LARGE","OBJECT_TYPE":"PAYLOAD","GP_ID":"190364244","MEAN_ELEMENT_THEORY":"SGP4","TLE_LINE2":"2 47562  53.0546 215.2521 0001896  68.8243 291.2949 15.06394176 44648","MEAN_MOTION_DOT":"-0.00000319","TIME_SYSTEM":"UTC","COUNTRY_CODE":"US","SITE":"AFETR","ELEMENT_SET_NO":"999","PERIOD":"95.593","EPOCH":"2021-11-23T21:24:17.151552","MEAN_MOTION_DDOT":"0.0000000000000","BSTAR":"-0.00000247660000","APOAPSIS":"548.544","CENTER_NAME":"EARTH","REV_AT_EPOCH":"4464","EPHEMERIS_TYPE":"0","TLE_LINE1":"1 47562U 21009Q   21327.89186518 -.00000319  00000-0 -24766-5 0  9992","OBJECT_ID":"2021-009Q","ARG_OF_PERICENTER":"68.8243","REF_FRAME":"TEME","MEAN_ANOMALY":"291.2949","FILE":"3222563","NORAD_CAT_ID":"47562","ECCENTRICITY":"0.00018960","PERIAPSIS":"545.918","SEMIMAJOR_AXIS":"6925.366","CLASSIFICATION_TYPE":"U","MEAN_MOTION":"15.06394176","OBJECT_NAME":"STARLINK-1961","RA_OF_ASC_NODE":"215.2521","LAUNCH_DATE":"2021-02-04"},{"PERIAPSIS":"546.035","SEMIMAJOR_AXIS":"6925.379","NORAD_CAT_ID":"47563","FILE":"3222563","ECCENTRICITY":"0.00017460","LAUNCH_DATE":"2021-02-04","RA_OF_ASC_NODE":"216.0451","OBJECT_NAME":"STARLINK-1962","CLASSIFICATION_TYPE":"U","MEAN_MOTION":"15.06390111","TLE_LINE1":"1 47563U 21009R   21327.71493991 -.00000812  00000-0 -35636-4 0  9995","OBJECT_ID":"2021-009R","EPHEMERIS_TYPE":"0","REV_AT_EPOCH":"4461","CENTER_NAME":"EARTH","MEAN_MOTION_DDOT":"0.0000000000000","BSTAR":"-0.00003563600000","APOAPSIS":"548.453","MEAN_ANOMALY":"287.3726","REF_FRAME":"TEME","ARG_OF_PERICENTER":"72.7454","COUNTRY_CODE":"US","SITE":"AFETR","TIME_SYSTEM":"UTC","TLE_LINE2":"2 47563  53.0564 216.0451 0001746  72.7454 287.3726 15.06390111 44613","MEAN_MOTION_DOT":"-0.00000812","MEAN_ELEMENT_THEORY":"SGP4","EPOCH":"2021-11-23T17:09:30.808224","PERIOD":"95.593","ELEMENT_SET_NO":"999","DECAY_DATE":null,"INCLINATION":"53.0564","RCS_SIZE":"LARGE","OBJECT_TYPE":"PAYLOAD","GP_ID":"190363994"},{"INCLINATION":"53.0554","DECAY_DATE":null,"RCS_SIZE":"LARGE","OBJECT_TYPE":"PAYLOAD","GP_ID":"190362742","MEAN_ELEMENT_THEORY":"SGP4","MEAN_MOTION_DOT":"-0.00000030","TLE_LINE2":"2 47564  53.0554 205.7408 0002117  75.8332 284.2892 15.06391108 44765","TIME_SYSTEM":"UTC","COUNTRY_CODE":"US","SITE":"AFETR","ELEMENT_SET_NO":"999","PERIOD":"95.593","EPOCH":"2021-11-23T18:46:22.545696","MEAN_MOTION_DDOT":"0.0000000000000","BSTAR":"0.00001687200000","APOAPSIS":"548.707","CENTER_NAME":"EARTH","EPHEMERIS_TYPE":"0","REV_AT_EPOCH":"4476","TLE_LINE1":"1 47564U 21009S   21327.78220539 -.00000030  00000-0  16872-4 0  9991","OBJECT_ID":"2021-009S","ARG_OF_PERICENTER":"75.8332","REF_FRAME":"TEME","MEAN_ANOMALY":"284.2892","FILE":"3222563","NORAD_CAT_ID":"47564","ECCENTRICITY":"0.00021170","PERIAPSIS":"545.775","SEMIMAJOR_AXIS":"6925.376","CLASSIFICATION_TYPE":"U","MEAN_MOTION":"15.06391108","RA_OF_ASC_NODE":"205.7408","OBJECT_NAME":"STARLINK-1963","LAUNCH_DATE":"2021-02-04"},{"RCS_SIZE":"LARGE","DECAY_DATE":null,"INCLINATION":"53.0554","GP_ID":"190362992","OBJECT_TYPE":"PAYLOAD","SITE":"AFETR","COUNTRY_CODE":"US","TIME_SYSTEM":"UTC","TLE_LINE2":"2 47565  53.0554 205.7557 0001981  68.5719 291.5481 15.06396494 44765","MEAN_MOTION_DOT":"0.00000245","MEAN_ELEMENT_THEORY":"SGP4","EPOCH":"2021-11-23T18:41:04.812288","PERIOD":"95.592","ELEMENT_SET_NO":"999","OBJECT_ID":"2021-009T","TLE_LINE1":"1 47565U 21009T   21327.77852792  .00000245  00000-0  35369-4 0  9992","EPHEMERIS_TYPE":"0","REV_AT_EPOCH":"4476","CENTER_NAME":"EARTH","APOAPSIS":"548.596","BSTAR":"0.00003536900000","MEAN_MOTION_DDOT":"0.0000000000000","MEAN_ANOMALY":"291.5481","REF_FRAME":"TEME","ARG_OF_PERICENTER":"68.5719","SEMIMAJOR_AXIS":"6925.359","PERIAPSIS":"545.852","ECCENTRICITY":"0.00019810","NORAD_CAT_ID":"47565","FILE":"3222563","LAUNCH_DATE":"2021-02-04","RA_OF_ASC_NODE":"205.7557","OBJECT_NAME":"STARLINK-1964","MEAN_MOTION":"15.06396494","CLASSIFICATION_TYPE":"U"},{"EPOCH":"2021-11-23T18:31:47.260128","PERIOD":"95.592","ELEMENT_SET_NO":"999","COUNTRY_CODE":"US","SITE":"AFETR","TIME_SYSTEM":"UTC","MEAN_MOTION_DOT":"0.00001271","TLE_LINE2":"2 47566  53.0548 195.7795 0002101  75.1149 285.0072 15.06404188 44907","MEAN_ELEMENT_THEORY":"SGP4","OBJECT_TYPE":"PAYLOAD","GP_ID":"190363744","RCS_SIZE":"LARGE","DECAY_DATE":null,"INCLINATION":"53.0548","LAUNCH_DATE":"2021-02-04","OBJECT_NAME":"STARLINK-1965","RA_OF_ASC_NODE":"195.7795","CLASSIFICATION_TYPE":"U","MEAN_MOTION":"15.06404188","PERIAPSIS":"545.746","SEMIMAJOR_AXIS":"6925.336","NORAD_CAT_ID":"47566","FILE":"3222563","ECCENTRICITY":"0.00021010","MEAN_ANOMALY":"285.0072","REF_FRAME":"TEME","ARG_OF_PERICENTER":"75.1149","TLE_LINE1":"1 47566U 21009U   21327.77207477  .00001271  00000-0  10421-3 0  9998","OBJECT_ID":"2021-009U","EPHEMERIS_TYPE":"0","REV_AT_EPOCH":"4490","CENTER_NAME":"EARTH","MEAN_MOTION_DDOT":"0.0000000000000","BSTAR":"0.00010421000000","APOAPSIS":"548.656"},{"REF_FRAME":"TEME","MEAN_ANOMALY":"292.0697","ARG_OF_PERICENTER":"68.0510","EPHEMERIS_TYPE":"0","REV_AT_EPOCH":"4435","OBJECT_ID":"2021-009V","TLE_LINE1":"1 47567U 21009V   21327.87527789  .00000096  00000-0  25376-4 0  9991","APOAPSIS":"548.636","BSTAR":"0.00002537600000","MEAN_MOTION_DDOT":"0.0000000000000","CENTER_NAME":"EARTH","LAUNCH_DATE":"2021-02-04","MEAN_MOTION":"15.06399326","CLASSIFICATION_TYPE":"U","OBJECT_NAME":"STARLINK-1966","RA_OF_ASC_NODE":"235.3255","SEMIMAJOR_AXIS":"6925.351","PERIAPSIS":"545.795","ECCENTRICITY":"0.00020510","NORAD_CAT_ID":"47567","FILE":"3222563","GP_ID":"190364495","OBJECT_TYPE":"PAYLOAD","INCLINATION":"53.0541","DECAY_DATE":null,"RCS_SIZE":"LARGE","EPOCH":"2021-11-23T21:00:24.009696","ELEMENT_SET_NO":"999","PERIOD":"95.592","TIME_SYSTEM":"UTC","SITE":"AFETR","COUNTRY_CODE":"US","MEAN_ELEMENT_THEORY":"SGP4","MEAN_MOTION_DOT":"0.00000096","TLE_LINE2":"2 47567  53.0541 235.3255 0002051  68.0510 292.0697 15.06399326 44357"},{"MEAN_ANOMALY":"288.2085","REF_FRAME":"TEME","ARG_OF_PERICENTER":"71.9108","OBJECT_ID":"2021-009W","TLE_LINE1":"1 47568U 21009W   21327.17125295  .00000438  00000-0  48322-4 0  9997","EPHEMERIS_TYPE":"0","REV_AT_EPOCH":"4425","CENTER_NAME":"EARTH","APOAPSIS":"548.504","BSTAR":"0.00004832200000","MEAN_MOTION_DDOT":"0.0000000000000","LAUNCH_DATE":"2021-02-04","OBJECT_NAME":"STARLINK-1967","RA_OF_ASC_NODE":"238.4867","MEAN_MOTION":"15.06403366","CLASSIFICATION_TYPE":"U","SEMIMAJOR_AXIS":"6925.338","PERIAPSIS":"545.903","ECCENTRICITY":"0.00018780","NORAD_CAT_ID":"47568","FILE":"3222418","GP_ID":"190338452","OBJECT_TYPE":"PAYLOAD","DECAY_DATE":null,"INCLINATION":"53.0544","RCS_SIZE":"LARGE","EPOCH":"2021-11-23T04:06:36.254880","PERIOD":"95.592","ELEMENT_SET_NO":"999","SITE":"AFETR","COUNTRY_CODE":"US","TIME_SYSTEM":"UTC","MEAN_MOTION_DOT":"0.00000438","TLE_LINE2":"2 47568  53.0544 238.4867 0001878  71.9108 288.2085 15.06403366 44253","MEAN_ELEMENT_THEORY":"SGP4"}];
